NORAD_CAT_ID,OBJECT_NAME,OBJECT_TYPE,EPOCH,MEAN_MOTION,ECCENTRICITY,INCLINATION,RA_OF_ASC_NODE,ARG_OF_PERICENTER,MEAN_ANOMALY,BSTAR,MEAN_MOTION_DOT,MEAN_MOTION_DDOT,TLE_LINE0,TLE_LINE1,TLE_LINE2,SEMIMAJOR_AXIS,PERIOD,APOGEE,PERIGEE,DECAYED
53412.0,STARLINK-4496,PAYLOAD,2023-03-24 20:37:25,15.0888011,0.0001326,53.2173,286.1578,94.5166,265.5978,0.00078808,0.0001229,0.0,0 STARLINK-4496,1 53412U 22097AA  23083.85931930  .00012290  00000-0  78808-3 0  9997,2 53412  53.2173 286.1578 0001326  94.5166 265.5978 15.08880110 34997,6917.758,95.435,540.54,538.705,0.0
53412.0,STARLINK-4496,PAYLOAD,2023-03-24 22:12:48,15.08885288,0.0001342,53.2176,285.8596,89.854,270.2606,0.00091624,0.00014342,0.0,0 STARLINK-4496,1 53412U 22097AA  23083.92555690  .00014342  00000-0  91624-3 0  9991,2 53412  53.2176 285.8596 0001342  89.8540 270.2606 15.08885288 35495,6917.742,95.435,540.535,538.679,0.0
53412.0,STARLINK-4496,PAYLOAD,2023-03-25 06:09:44,15.08826869,8.27e-05,53.2171,284.3735,137.2211,222.8845,-0.0013487,-0.0002168,0.0,0 STARLINK-4496,1 53412U 22097AA  23084.25676188 -.00021680  00000-0 -13487-2 0  9999,2 53412  53.2171 284.3735 0000827 137.2211 222.8845 15.08826869 35059,6917.921,95.438,540.358,539.213,0.0
53412.0,STARLINK-4496,PAYLOAD,2023-03-25 20:28:13,15.08819181,0.0001286,53.2164,281.6959,104.2518,255.8617,-0.00044909,-7.424e-05,0.0,0 STARLINK-4496,1 53412U 22097AA  23084.85293643 -.00007424  00000-0 -44909-3 0  9990,2 53412  53.2164 281.6959 0001286 104.2518 255.8617 15.08819181 35639,6917.944,95.439,540.699,538.919,0.0
53412.0,STARLINK-4496,PAYLOAD,2023-03-25 23:39:00,15.08821675,0.0001302,53.2155,281.0991,100.4502,259.6637,-0.00021505,-3.707e-05,0.0,0 STARLINK-4496,1 53412U 22097AA  23084.98541805 -.00003707  00000-0 -21505-3 0  9997,2 53412  53.2155 281.0991 0001302 100.4502 259.6637 15.08821675 35162,6917.936,95.439,540.702,538.901,0.0
53412.0,STARLINK-4496,PAYLOAD,2023-03-26 06:00:33,15.08809828,0.0001155,53.2155,279.9105,101.862,258.2502,-0.00020765,-3.588e-05,0.0,0 STARLINK-4496,1 53412U 22097AA  23085.25038585 -.00003588  00000-0 -20765-3 0  9998,2 53412  53.2155 279.9105 0001155 101.8620 258.2502 15.08809828 35204,6917.973,95.439,540.637,539.039,0.0
53412.0,STARLINK-4496,PAYLOAD,2023-03-26 20:19:02,15.08813042,0.0001251,53.2157,277.2335,102.6372,257.476,9.0804e-05,1.157e-05,0.0,0 STARLINK-4496,1 53412U 22097AA  23085.84655935  .00001157  00000-0  90804-4 0  9997,2 53412  53.2157 277.2335 0001251 102.6372 257.4760 15.08813042 35785,6917.963,95.439,540.693,538.962,0.0
53412.0,STARLINK-4496,PAYLOAD,2023-03-27 12:12:54,15.08841038,0.0001301,53.2157,274.26,103.4838,256.6299,0.00089971,0.0001406,0.0,0 STARLINK-4496,1 53412U 22097AA  23086.50896286  .00014060  00000-0  89971-3 0  9996,2 53412  53.2157 274.2600 0001301 103.4838 256.6299 15.08841038 35390,6917.877,95.437,540.642,538.842,0.0
53412.0,STARLINK-4496,PAYLOAD,2023-03-27 18:34:26,15.08863921,0.0001232,53.2154,273.0709,102.2045,257.9085,0.0014557,0.00022971,0.0,0 STARLINK-4496,1 53412U 22097AA  23086.77391859  .00022971  00000-0  14557-2 0  9998,2 53412  53.2154 273.0709 0001232 102.2045 257.9085 15.08863921 35431,6917.807,95.436,540.525,538.82,0.0
53412.0,STARLINK-4496,PAYLOAD,2023-03-28 12:03:40,15.08862742,0.0001457,53.2159,269.8,86.6384,273.4775,0.0010582,0.00016604,0.0,0 STARLINK-4496,1 53412U 22097AA  23087.50255263  .00016604  00000-0  10582-2 0  9998,2 53412  53.2159 269.8000 0001457  86.6384 273.4775 15.08862742 35544,6917.811,95.436,540.684,538.668,0.0
53412.0,STARLINK-4496,PAYLOAD,2023-03-28 18:25:12,15.08867652,0.0001148,53.2161,268.611,84.8857,275.2266,0.0016174,0.00025566,0.0,0 STARLINK-4496,1 53412U 22097AA  23087.76750884  .00025566  00000-0  16174-2 0  9995,2 53412  53.2161 268.6110 0001148  84.8857 275.2266 15.08867652 36077,6917.796,95.436,540.455,538.867,0.0
53412.0,STARLINK-4496,PAYLOAD,2023-03-29 11:54:26,15.08883749,0.0001773,53.2154,265.3398,93.2708,266.8487,0.0014135,0.00022307,0.0,0 STARLINK-4496,1 53412U 22097AA  23088.49613480  .00022307  00000-0  14135-2 0  9991,2 53412  53.2154 265.3398 0001773  93.2708 266.8487 15.08883749 35697,6917.747,95.435,540.838,538.385,0.0
53412.0,STARLINK-4496,PAYLOAD,2023-03-29 18:15:59,15.08838993,0.0001444,53.2158,264.151,90.2637,269.852,0.00031322,4.7e-05,0.0,0 STARLINK-4496,1 53412U 22097AA  23088.76110255  .00004700  00000-0  31322-3 0  9998,2 53412  53.2158 264.1510 0001444  90.2637 269.8520 15.08838993 35734,6917.883,95.438,540.747,538.75,0.0
53412.0,STARLINK-4496,PAYLOAD,2023-03-30 18:06:46,15.08859774,0.0001575,53.2156,259.6893,91.0603,269.057,0.0015654,0.00024727,0.0,0 STARLINK-4496,1 53412U 22097AA  23089.75470416  .00024727  00000-0  15654-2 0  9996,2 53412  53.2156 259.6893 0001575  91.0603 269.0570 15.08859774 36370,6917.82,95.436,540.775,538.595,0.0
53412.0,STARLINK-4496,PAYLOAD,2023-03-31 03:39:04,15.08846488,0.0001389,53.2156,257.9075,185.6814,174.4163,-0.00045924,-7.591e-05,0.0,0 STARLINK-4496,1 53412U 22097AA  23090.15213605 -.00007591  00000-0 -45924-3 0  9993,2 53412  53.2156 257.9075 0001389 185.6814 174.4163 15.08846488 35947,6917.861,95.437,540.686,538.765,0.0
53412.0,STARLINK-4496,PAYLOAD,2023-03-31 17:57:32,15.08866494,0.0001353,53.2151,255.2295,106.4558,253.6583,0.0011032,0.00017326,0.0,0 STARLINK-4496,1 53412U 22097AA  23090.74829824  .00017326  00000-0  11032-2 0  9991,2 53412  53.2151 255.2295 0001353 106.4558 253.6583 15.08866494 36030,6917.799,95.436,540.6,538.728,0.0
53412.0,STARLINK-4496,PAYLOAD,2023-04-01 03:29:52,15.08831299,0.0002147,53.2151,253.445,85.9179,274.2058,0.00033104,4.983e-05,0.0,0 STARLINK-4496,1 53412U 22097AA  23091.14574595  .00004983  00000-0  33104-3 0  9998,2 53412  53.2151 253.4450 0002147  85.9179 274.2058 15.08831299 36092,6917.907,95.438,541.257,538.287,0.0
53412.0,STARLINK-4496,PAYLOAD,2023-04-01 11:26:48,15.08817196,0.0001821,53.2144,251.961,97.6031,262.5168,0.00031548,4.733e-05,0.0,0 STARLINK-4496,1 53412U 22097AA  23091.47695030  .00004733  00000-0  31548-3 0  9995,2 53412  53.2144 251.9610 0001821  97.6031 262.5168 15.08817196 36632,6917.95,95.439,541.075,538.555,0.0
53412.0,STARLINK-4496,PAYLOAD,2023-04-01 14:37:34,15.08819203,0.0001507,53.216,251.3658,99.3883,260.7279,-0.00012928,-2.344e-05,0.0,0 STARLINK-4496,1 53412U 22097AA  23091.60943097 -.00002344  00000-0 -12928-3 0  9998,2 53412  53.2160 251.3658 0001507  99.3883 260.7279 15.08819203 36163,6917.944,95.439,540.851,538.766,0.0
53412.0,STARLINK-4496,PAYLOAD,2023-04-01 20:59:07,15.08825383,0.0001664,53.2176,250.1756,98.2899,261.8281,0.0004441,6.784e-05,0.0,0 STARLINK-4496,1 53412U 22097AA  23091.87439407  .00006784  00000-0  44410-3 0  9993,2 53412  53.2176 250.1756 0001664  98.2899 261.8281 15.08825383 36694,6917.925,95.438,540.941,538.639,0.0
53412.0,STARLINK-4496,PAYLOAD,2023-04-02 14:28:22,15.08855345,0.0001415,53.2163,246.9034,84.1558,275.9595,0.0015036,0.00023733,0.0,0 STARLINK-4496,1 53412U 22097AA  23092.60303594  .00023733  00000-0  15036-2 0  9996,2 53412  53.2163 246.9034 0001415  84.1558 275.9595 15.08855345 36316,6917.833,95.437,540.677,538.72,0.0
53412.0,STARLINK-4496,PAYLOAD,2023-04-02 19:14:31,15.08862044,0.0001463,53.2166,246.0119,84.1455,275.9703,0.0012533,0.00019727,0.0,0 STARLINK-4496,1 53412U 22097AA  23092.80175304  .00019727  00000-0  12533-2 0  9991,2 53412  53.2166 246.0119 0001463  84.1455 275.9703 15.08862044 36835,6917.813,95.436,540.69,538.666,0.0
53412.0,STARLINK-4496,PAYLOAD,2023-04-03 03:11:27,15.08856395,0.0001617,53.2151,244.5236,84.4645,275.6531,0.00086247,0.00013471,0.0,0 STARLINK-4496,1 53412U 22097AA  23093.13295310  .00013471  00000-0  86247-3 0  9992,2 53412  53.2151 244.5236 0001617  84.4645 275.6531 15.08856395 36396,6917.83,95.437,540.814,538.577,0.0
53412.0,STARLINK-4496,PAYLOAD,2023-04-03 11:08:22,15.08848267,0.0001625,53.2159,243.038,87.4289,272.6889,0.00017222,2.455e-05,0.0,0 STARLINK-4496,1 53412U 22097AA  23093.46415159  .00002455  00000-0  17222-3 0  9990,2 53412  53.2159 243.0380 0001625  87.4289 272.6889 15.08848267 36442,6917.855,95.437,540.844,538.596,0.0
53412.0,STARLINK-4496,PAYLOAD,2023-04-04 03:02:13,15.0886031,9.61e-05,53.2158,240.0631,65.8704,294.2388,0.00055174,8.509e-05,0.0,0 STARLINK-4496,1 53412U 22097AA  23094.12654523  .00008509  00000-0  55174-3 0  9998,2 53412  53.2158 240.0631 0000961  65.8704 294.2388 15.08860310 36549,6917.818,95.436,540.348,539.019,0.0
53412.0,STARLINK-4496,PAYLOAD,2023-04-04 18:56:05,15.08845783,0.0001841,53.2155,237.0888,75.0354,285.0842,0.0002158,3.149e-05,0.0,0 STARLINK-4496,1 53412U 22097AA  23094.78894911  .00003149  00000-0  21580-3 0  9996,2 53412  53.2155 237.0888 0001841  75.0354 285.0842 15.08845783 36649,6917.863,95.437,541.001,538.454,0.0
53412.0,STARLINK-4496,PAYLOAD,2023-04-04 22:06:49,15.08870129,0.0002757,53.2148,236.4957,244.6335,115.4372,0.00049439,7.595e-05,0.0,0 STARLINK-4496,1 53412U 22097AA  23094.92140184  .00007595  00000-0  49439-3 0  9990,2 53412  53.2148 236.4957 0002757 244.6335 115.4372 15.08870129 36669,6917.788,95.436,541.561,537.746,0.0
53412.0,STARLINK-4496,PAYLOAD,2023-04-05 14:00:43,15.08838589,0.0001254,53.2169,233.5218,72.3648,287.7481,0.00014233,1.978e-05,0.0,0 STARLINK-4496,1 53412U 22097AA  23095.58383316  .00001978  00000-0  14233-3 0  9992,2 53412  53.2169 233.5218 0001254  72.3648 287.7481 15.08838589 37258,6917.885,95.438,540.617,538.882,0.0
53412.0,STARLINK-4496,PAYLOAD,2023-04-05 15:36:06,15.08841085,0.0001365,53.214,233.2213,70.347,289.7669,0.00026303,3.901e-05,0.0,0 STARLINK-4496,1 53412U 22097AA  23095.65007246  .00003901  00000-0  26303-3 0  9994,2 53412  53.2140 233.2213 0001365  70.3470 289.7669 15.08841085 36774,6917.877,95.437,540.686,538.798,0.0
53412.0,STARLINK-4496,PAYLOAD,2023-04-06 12:16:07,15.08840986,0.0001282,53.2177,229.3593,75.325,284.7884,0.00024741,3.652e-05,0.0,0 STARLINK-4496,1 53412U 22097AA  23096.51119479  .00003652  00000-0  24741-3 0  9999,2 53412  53.2177 229.3593 0001282  75.3250 284.7884 15.08840986 36908,6917.877,95.437,540.629,538.856,0.0
